0 XW-2F
1 40910U 15049M   23013.56270356  .00021632  00000-0  79281-3 0  9990
2 40910  97.4707  25.2396 0010221 324.3129 153.7677 15.27969264405205
0 OSCAR 7
1  7530U 74089B   23013.54622965 -.00000025  00000-0  13009-3 0  9995
2  7530 101.9320 359.2769 0012288   0.6450 115.0259 12.53660098204032
0 XW-2B
1 40911U 15049N   23013.52711279  .00013230  00000-0  56889-3 0  9995
2 40911  97.4926  21.3822 0011758 350.8775 127.8802 15.22712277404786
0 XW-2C
1 40906U 15049H   23013.51748241  .00011282  00000-0  49897-3 0  9993
2 40906  97.4960  20.6399 0012639 354.2014 170.0550 15.21784254404831
0 XW-2D
1 40907U 15049J   23013.49050029  .00013252  00000-0  56740-3 0  9995
2 40907  97.4942  20.8231 0011595 349.1268 162.5556 15.22860825404891
0 XW-2A
1 40903U 15049E   23013.48850860  .00077228  00000-0  69564-3 0  9992
2 40903  97.1468  78.6181 0007717  57.8045  69.5161 15.67918947411983
0 ISS (ZARYA)
1 25544U 98067A   23013.45358267  .00014835  00000-0  26576-3 0  9999
2 25544  51.6444  14.9850 0004589 262.0511 194.1080 15.50172483377798
0 TEVEL 8
1 50989U 22002F   23013.40902954  .00015258  00000-0  75046-3 0  9995
2 50989  97.4588  82.0842 0010357  58.6414 357.6325 15.18061625 55222
0 XW-3 (CAS 9)
1 50466U 21131B   23013.22723715  .00000625  00000-0  21872-3 0  9993
2 50466  98.5652  95.2207 0003860 233.5216 126.5615 14.38621585 55078
0 XW-2E
1 40909U 15049L   23013.22308164  .00021477  00000-0  77439-3 0  9990
2 40909  97.4608  25.7067 0009365 323.9350  99.7764 15.28515188405390
0 OBJECT C
1 54684U 22167C   23013.21941067  .00010791  00000-0  67828-3 0  9996
2 54684  97.5392 152.6106 0015231 143.9568 336.8349 15.09319637  5266
0 LILACSAT 2
1 40908U 15049K   23013.19051221  .00006151  00000-0  31120-3 0  9993
2 40908  97.5218  16.9683 0015319  16.0632  49.0430 15.17291537404273
0 TEVEL 4
1 51063U 22002CH  23013.14959374  .00015316  00000-0  75388-3 0  9992
2 51063  97.4588  81.8000 0010208  60.0249 355.9370 15.18034171 55189
0 TEVEL 5
1 50998U 22002Q   23013.14879532  .00015863  00000-0  76581-3 0  9998
2 50998  97.4563  82.0177 0011581  56.0511   2.5648 15.18690506 55204
0 TEVEL 7
1 51062U 22002CG  23013.14761539  .00015347  00000-0  75496-3 0  9999
2 51062  97.4586  81.8051 0010214  60.5393 356.8860 15.18056003 55186
0 TEVEL 6
1 50999U 22002R   23013.14714591  .00015746  00000-0  76002-3 0  9990
2 50999  97.4565  82.0137 0011652  55.2473   0.2920 15.18696857 55203
0 TEVEL 1
1 51013U 22002AF  23013.13841405  .00015173  00000-0  74598-3 0  9994
2 51013  97.4569  81.7376 0009978  62.5524 351.6358 15.18079865 55181
0 TEVEL 2
1 51069U 22002CP  23013.13452587  .00015179  00000-0  74565-3 0  9994
2 51069  97.4566  81.7492 0010094  62.7261 352.9089 15.18107350 55185
0 LAPAN A2
1 40931U 15052B   23013.13338889  .00001348  00000-0  97633-4 0  9990
2 40931   5.9948 113.1318 0013751 259.9364  99.7696 14.76974010394390
0 TEVEL 3
1 50988U 22002E   23013.13316149  .00015074  00000-0  74048-3 0  9996
2 50988  97.4566  81.7688 0010152  61.7803 356.4774 15.18108993 55181
0 SAUDISAT 1C
1 27607U 02058C   23013.11236417  .00002339  00000-0  33719-3 0  9994
2 27607  64.5565  20.1272 0079827 254.8531 104.3732 14.76585796 79532
0 UVSQ-SAT
1 47438U 21006AB  23013.10527841  .00015473  00000-0  74494-3 0  9993
2 47438  97.4103  72.8569 0009668 266.3751  93.6378 15.18808039109063
0 DIWATA 2B
1 43678U 18084H   23013.04412885  .00001610  00000-0  16201-3 0  9991
2 43678  97.9966 154.2141 0008932 321.1305  38.9241 14.92638383229110
0 ZHUHAI-1 02
1 42759U 17034B   23013.02965975  .00007825  00000-0  43558-3 0  9994
2 42759  43.0170 256.0381 0009845 185.7690 315.0989 15.13945707308098
0 ZHUHAI-1 01
1 42761U 17034D   23012.98557352  .00007999  00000-0  44381-3 0  9994
2 42761  43.0174 254.9105 0010113 186.4454 305.9616 15.14038369308095
0 JY1SAT
1 43803U 18099AX  23012.92487179  .00007451  00000-0  62704-3 0  9999
2 43803  97.5947  79.5528 0012239 284.5404  75.4461 14.98467154224421
0 NAYIF 1
1 42017U 17008BX  23012.92352069  .00053507  00000-0  11478-2 0  9997
2 42017  97.2416  81.8577 0003063 198.8179 161.2957 15.44550054329284
0 JAS 2
1 24278U 96046B   23012.91339356  .00000025  00000-0  57944-4 0  9995
2 24278  98.5154  12.7404 0351287  99.7333 264.3662 13.53127664303930
0 FUNCUBE 1
1 39444U 13066AE  23012.89135188  .00005726  00000-0  66475-3 0  9992
2 39444  97.6531 342.8234 0056776  65.2076 295.5031 14.84593735492582
0 EYESAT A
1 22825U 93061C   23012.83485555  .00000180  00000-0  87102-4 0  9990
2 22825  98.8641  53.0500 0008895 155.2963 204.8646 14.30228412528081
0 NEXUS
1 43937U 19003F   23012.82982946  .00031378  00000-0  84882-3 0  9990
2 43937  97.1091  43.5836 0019084 119.0109 241.3052 15.37458758222069
0 BREEZE-KM R/B
1 44909U 19096E   23012.64073334  .00000032  00000-0  82221-4 0  9993
2 44909  82.5209  91.3089 0217456 190.3621 169.2962 12.79717746142262
0 ES'HAIL 2
1 43700U 18090A   23012.49214928  .00000162  00000-0  00000-0 0  9998
2 43700   0.0166  39.5749 0001954 302.8700 332.2796  1.00272475 15124
0 AO-92
1 43137U 18004AC  23012.48751751  .00026805  00000-0  79356-3 0  9991
2 43137  97.3482  91.1892 0006724 350.8290   9.2829 15.34836535278346
0 AO-95
1 43770U 18099N   23012.40908974  .00005843  00000-0  50265-3 0  9998
2 43770  97.5973  78.1877 0012285 298.9468  61.0522 14.97703191224270
0 AO-91
1 43017U 17073E   23012.24365985  .00008831  00000-0  64699-3 0  9990
2 43017  97.6511 262.8241 0241068 222.8340 135.3874 14.83342226278040
0 CSS (TIANHE-1)
1 48274U 21035A   23012.23367050 -.00018367  00000-0 -21522-3 0  9992
2 48274  41.4753  26.4941 0005407 299.3023 160.2507 15.60221184 97446
0 MT-CUBE-2
1 53106U 22080B   22354.08419093 -.00000003  00000-0  00000+0 0  9990
2 53106  70.1702  21.9397 0008914 226.9685 182.2049  6.42557326 10248
